[{"Store_Name":"Patel Brothers", "EIN_Number":591938154, "Phone_Number":"(508) 842-9600", "Street_Name":"504 Boston Turnpike", "City":"Shrewsbury", "State":"Massachusetts", "Zipcode":1545, "Shipping_Delivery_Charged":"$15 ", "StoreID":4},
 {"Store_Name":"Hello Brothers", "EIN_Number":492947174, "Phone_Number":"(781) 202-4400", "Street_Name":"207 Cambridge St", "City":"Burlington", "State":"Massachusetts", "Zipcode":1803, "Shipping_Delivery_Charged":"$10 ", "StoreID":5},
 {"Store_Name":"Walmart", "EIN_Number":710415188, "Phone_Number":"(781) 592-4300", "Street_Name":"780 Lynnway", "City":"Lynn", "State":"Massachusetts", "Zipcode":1905, "Shipping_Delivery_Charged":"$10 ", "StoreID":32},
 {"Store_Name":"Best Buy", "EIN_Number":410907483, "Phone_Number":"(781) 233-3435", "Street_Name":"1201 Broadway", "City":"Saugus", "State":"Massachusetts", "Zipcode":1906, "Shipping_Delivery_Charged":"$20 ", "StoreID":19},
 {"Store_Name":"Walmart", "EIN_Number":710415188, "Phone_Number":"(781) 816-5370", "Street_Name":"770 Broadway", "City":"Saugus", "State":"Massachusetts", "Zipcode":1906, "Shipping_Delivery_Charged":"$10 ", "StoreID":33},
 {"Store_Name":"Best Buy", "EIN_Number":410907483, "Phone_Number":"(781) 461-6768", "Street_Name":"700 Providence Hwy", "City":"Dedham", "State":"Massachusetts", "Zipcode":2026, "Shipping_Delivery_Charged":"$20 ", "StoreID":18},
 {"Store_Name":"Burlington", "EIN_Number":800895227, "Phone_Number":"(339) 204-9543", "Street_Name":"302 Providence Hw", "City":"Dedham", "State":"Massachusetts", "Zipcode":2026, "Shipping_Delivery_Charged":"$20 ", "StoreID":47},
 {"Store_Name":"Costco", "EIN_Number":911223280, "Phone_Number":"(781) 251-9975", "Street_Name":"200 Legacy Blvd", "City":"Dedham", "State":"Massachusetts", "Zipcode":2026, "Shipping_Delivery_Charged":"$30 ", "StoreID":28},
 {"Store_Name":"T. J. Maxx", "EIN_Number":422076163, "Phone_Number":"(617) 695-2424", "Street_Name":"350 Washington St", "City":"Boston", "State":"Massachusetts", "Zipcode":2109, "Shipping_Delivery_Charged":"$15 ", "StoreID":21},
 {"Store_Name":"Target", "EIN_Number":410215170, "Phone_Number":"(857) 557-2879", "Street_Name":"100 Cambridge St Ste 2", "City":"Boston", "State":"Massachusetts", "Zipcode":2114, "Shipping_Delivery_Charged":"$9.99 ", "StoreID":9},
 {"Store_Name":"Star Market", "EIN_Number":631238111, "Phone_Number":"(857) 409-3403", "Street_Name":"90 Causeway St", "City":"Boston", "State":"Massachusetts", "Zipcode":2114, "Shipping_Delivery_Charged":"$9.99 ", "StoreID":14},
 {"Store_Name":"Symphony Market", "EIN_Number":328313543, "Phone_Number":"(617) 437-7907", "Street_Name":"291 Huntington Ave", "City":"Boston", "State":"Massachusetts", "Zipcode":2115, "Shipping_Delivery_Charged":"$10 ", "StoreID":48},
 {"Store_Name":"College Convenience", "EIN_Number":354819459, "Phone_Number":"(617) 267-2009", "Street_Name":"281 Huntington Ave", "City":"Boston", "State":"Massachusetts", "Zipcode":2115, "Shipping_Delivery_Charged":"$10 ", "StoreID":27},
 {"Store_Name":"T. J. Maxx", "EIN_Number":422076163, "Phone_Number":"(617) 867-4180", "Street_Name":"360 Newbury St", "City":"Boston", "State":"Massachusetts", "Zipcode":2115, "Shipping_Delivery_Charged":"$15 ", "StoreID":25},
 {"Store_Name":"Wollaston's Market", "EIN_Number":521344942, "Phone_Number":"(617) 247-0011", "Street_Name":"369 Huntington Ave", "City":"Boston", "State":"Massachusetts", "Zipcode":2115, "Shipping_Delivery_Charged":"$10 ", "StoreID":1},
 {"Store_Name":"CVS", "EIN_Number":550494040, "Phone_Number":"(617) 266-6775", "Street_Name":"231 Massachusetts Ave", "City":"Boston", "State":"Massachusetts", "Zipcode":2115, "Shipping_Delivery_Charged":"$10 ", "StoreID":40},
 {"Store_Name":"Trader Joe's", "EIN_Number":951987958, "Phone_Number":"(617) 262-6505", "Street_Name":"899 Boylston St", "City":"Boston", "State":"Massachusetts", "Zipcode":2115, "Shipping_Delivery_Charged":"$15 ", "StoreID":34},
 {"Store_Name":"CVS", "EIN_Number":550494040, "Phone_Number":"(617) 437-8414", "Street_Name":"587 Boylston St", "City":"Boston", "State":"Massachusetts", "Zipcode":2116, "Shipping_Delivery_Charged":"$10 ", "StoreID":42},
 {"Store_Name":"Punjab Mini Mart", "EIN_Number":203018019, "Phone_Number":"(617) 566-5252", "Street_Name":"1576 Tremont St", "City":"Boston", "State":"Massachusetts", "Zipcode":2120, "Shipping_Delivery_Charged":"$10 ", "StoreID":26},
 {"Store_Name":"Target", "EIN_Number":410215170, "Phone_Number":"(617) 602-1921", "Street_Name":"7 Allstate Rd", "City":"Dorchester", "State":"Massachusetts", "Zipcode":2125, "Shipping_Delivery_Charged":"$9.99 ", "StoreID":7},
 {"Store_Name":"Best Buy", "EIN_Number":410907483, "Phone_Number":"(617) 445-5361", "Street_Name":"14 Allstate Rd", "City":"Dorchester", "State":"Massachusetts", "Zipcode":2125, "Shipping_Delivery_Charged":"$20 ", "StoreID":20},
 {"Store_Name":"T. J. Maxx", "EIN_Number":422076163, "Phone_Number":"(617) 989-8590", "Street_Name":"8 B Allstate Rd", "City":"Dorchester", "State":"Massachusetts", "Zipcode":2125, "Shipping_Delivery_Charged":"$15 ", "StoreID":22},
 {"Store_Name":"Star Market", "EIN_Number":631238111, "Phone_Number":"(617) 265-1776", "Street_Name":"45 Morrissey Blvd", "City":"Dorchester", "State":"Massachusetts", "Zipcode":2125, "Shipping_Delivery_Charged":"$9.99 ", "StoreID":15},
 {"Store_Name":"Trader Joe's", "EIN_Number":951987958, "Phone_Number":"(617) 498-3201", "Street_Name":"211 Alewife Brook Pkwy", "City":"Cambridge", "State":"Massachusetts", "Zipcode":2138, "Shipping_Delivery_Charged":"$15 ", "StoreID":38},
 {"Store_Name":"Target", "EIN_Number":410215170, "Phone_Number":"(617) 914-8262", "Street_Name":"564 Massachusetts Ave", "City":"Cambridge", "State":"Massachusetts", "Zipcode":2139, "Shipping_Delivery_Charged":"$9.99 ", "StoreID":10},
 {"Store_Name":"Trader Joe's", "EIN_Number":951987958, "Phone_Number":"(617) 491-8582", "Street_Name":"748 Memorial Dr", "City":"Cambridge", "State":"Massachusetts", "Zipcode":2139, "Shipping_Delivery_Charged":"$15 ", "StoreID":36},
 {"Store_Name":"T. J. Maxx", "EIN_Number":422076163, "Phone_Number":"(617) 225-3980", "Street_Name":"100 Cambridgeside Pl", "City":"Cambridge", "State":"Massachusetts", "Zipcode":2141, "Shipping_Delivery_Charged":"$15 ", "StoreID":23},
 {"Store_Name":"Taj Mahal Desi Bazaar", "EIN_Number":673728138, "Phone_Number":"(617) 764-3362", "Street_Name":"274 Broadway", "City":"Somerville", "State":"Massachusetts", "Zipcode":2145, "Shipping_Delivery_Charged":"$10 ", "StoreID":39},
 {"Store_Name":"Burlington", "EIN_Number":800895227, "Phone_Number":"(617) 623-0592", "Street_Name":"133 Middlesex Ave", "City":"Somerville", "State":"Massachusetts", "Zipcode":2145, "Shipping_Delivery_Charged":"$20 ", "StoreID":45},
 {"Store_Name":"Trader Joe's", "EIN_Number":951987958, "Phone_Number":"(617) 591-0124", "Street_Name":"145 Middlesex Ave", "City":"Somerville", "State":"Massachusetts", "Zipcode":2145, "Shipping_Delivery_Charged":"$15 ", "StoreID":37},
 {"Store_Name":"Best Buy", "EIN_Number":410907483, "Phone_Number":"(617) 394-5080", "Street_Name":"162 Santilli Hwy", "City":"Everett", "State":"Massachusetts", "Zipcode":2149, "Shipping_Delivery_Charged":"$20 ", "StoreID":17},
 {"Store_Name":"Costco", "EIN_Number":911223280, "Phone_Number":"(617) 544-4806", "Street_Name":"2 Mystic View Rd", "City":"Everett", "State":"Massachusetts", "Zipcode":2149, "Shipping_Delivery_Charged":"$30 ", "StoreID":29},
 {"Store_Name":"Burlington", "EIN_Number":800895227, "Phone_Number":"(781) 284-0270", "Street_Name":"339 Squire Rd", "City":"Revere", "State":"Massachusetts", "Zipcode":2151, "Shipping_Delivery_Charged":"$20 ", "StoreID":46},
 {"Store_Name":"Walmart", "EIN_Number":710415188, "Phone_Number":"(617) 745-4390", "Street_Name":"301 Falls Blvd", "City":"Quincy", "State":"Massachusetts", "Zipcode":2169, "Shipping_Delivery_Charged":"$10 ", "StoreID":31},
 {"Store_Name":"CVS", "EIN_Number":550494040, "Phone_Number":"(617) 880-1497", "Street_Name":"800 Boylston St", "City":"Boston", "State":"Massachusetts", "Zipcode":2199, "Shipping_Delivery_Charged":"$10 ", "StoreID":41},
 {"Store_Name":"Star Market", "EIN_Number":631238111, "Phone_Number":"(617) 262-4688", "Street_Name":"53 Huntington Ave", "City":"Boston", "State":"Massachusetts", "Zipcode":2199, "Shipping_Delivery_Charged":"$9.99 ", "StoreID":12},
 {"Store_Name":"Target", "EIN_Number":410215170, "Phone_Number":"(857) 317-5220", "Street_Name":"1341 Boylston St", "City":"Boston", "State":"Massachusetts", "Zipcode":2215, "Shipping_Delivery_Charged":"$9.99 ", "StoreID":6},
 {"Store_Name":"Star Market", "EIN_Number":631238111, "Phone_Number":"(617) 267-4684", "Street_Name":"33 Kilmarnock St", "City":"Boston", "State":"Massachusetts", "Zipcode":2215, "Shipping_Delivery_Charged":"$9.99 ", "StoreID":11},
 {"Store_Name":"Symphony Mart", "EIN_Number":752218234, "Phone_Number":"(617) 262-6644", "Street_Name":"1130 Boylston St", "City":"Boston", "State":"Massachusetts", "Zipcode":2215, "Shipping_Delivery_Charged":"$10 ", "StoreID":49},
 {"Store_Name":"T. J. Maxx", "EIN_Number":422076163, "Phone_Number":"(617) 232-5420", "Street_Name":"525 Harvard St", "City":"Brookline", "State":"Massachusetts", "Zipcode":2446, "Shipping_Delivery_Charged":"$15 ", "StoreID":24},
 {"Store_Name":"Trader Joe's", "EIN_Number":951987958, "Phone_Number":"(617) 278-9997", "Street_Name":"1317 Beacon St", "City":"Brookline", "State":"Massachusetts", "Zipcode":2446, "Shipping_Delivery_Charged":"$15 ", "StoreID":35},
 {"Store_Name":"Costco", "EIN_Number":911223280, "Phone_Number":"(781) 622-3883", "Street_Name":"71 2nd Ave", "City":"Waltham", "State":"Massachusetts", "Zipcode":2451, "Shipping_Delivery_Charged":"$30 ", "StoreID":30},
 {"Store_Name":"Patel Brothers", "EIN_Number":591938154, "Phone_Number":"(781) 893-1003", "Street_Name":"425 Moody St", "City":"Waltham", "State":"Massachusetts", "Zipcode":2453, "Shipping_Delivery_Charged":"$15 ", "StoreID":3},
 {"Store_Name":"Best Buy", "EIN_Number":410907483, "Phone_Number":"(617) 926-0142", "Street_Name":"550 Arsenal St Ste 2", "City":"Watertown", "State":"Massachusetts", "Zipcode":2472, "Shipping_Delivery_Charged":"$20 ", "StoreID":16}]